{
  "norad_id": 67228,
  "name": "QPS-SAR-15 (SUKUNAMI-I)",
  "history": [
    {
      "epoch": "2026-03-28T15:56:06.037728Z",
      "apogee_km": 578.9734411345389,
      "perigee_km": 565.3883497760826,
      "latitude_deg": -1.0987878995090033e-06,
      "longitude_deg": -115.24512187393076,
      "height_km": 578.3138480188632,
      "semi_major_axis_km": 6950.3178954553105,
      "eccentricity": 0.0009773,
      "inclination_deg": 42.0072,
      "raan_deg": 309.8612,
      "arg_perigee_deg": 197.941,
      "mean_anomaly_deg": 162.1071,
      "mean_motion_rev_day": 14.98289578
    },
    {
      "epoch": "2026-03-28T23:56:04.152192Z",
      "apogee_km": 578.9903879561189,
      "perigee_km": 565.3455492417652,
      "latitude_deg": 8.603537923952129e-06,
      "longitude_deg": 122.60601829469289,
      "height_km": 578.2490366998652,
      "semi_major_axis_km": 6950.304968598942,
      "eccentricity": 0.0009816,
      "inclination_deg": 42.0072,
      "raan_deg": 308.033,
      "arg_perigee_deg": 200.0199,
      "mean_anomaly_deg": 160.0242,
      "mean_motion_rev_day": 14.98293758
    },
    {
      "epoch": "2026-03-29T23:55:57.886464Z",
      "apogee_km": 579.0357725252634,
      "perigee_km": 565.2047605648377,
      "latitude_deg": 6.615455132804979e-05,
      "longitude_deg": 116.16161605510918,
      "height_km": 577.9923816523159,
      "semi_major_axis_km": 6950.25726654505,
      "eccentricity": 0.000995,
      "inclination_deg": 42.007,
      "raan_deg": 302.548,
      "arg_perigee_deg": 206.28,
      "mean_anomaly_deg": 153.7522,
      "mean_motion_rev_day": 14.98309183
    },
    {
      "epoch": "2026-03-30T06:19:56.089632Z",
      "apogee_km": 579.0551016993813,
      "perigee_km": 565.1662827310729,
      "latitude_deg": 4.016010376351289e-05,
      "longitude_deg": 18.44345629402943,
      "height_km": 577.920531792091,
      "semi_major_axis_km": 6950.247692215226,
      "eccentricity": 0.00099916,
      "inclination_deg": 42.007,
      "raan_deg": 301.0852,
      "arg_perigee_deg": 207.8804,
      "mean_anomaly_deg": 152.1487,
      "mean_motion_rev_day": 14.98312279
    },
    {
      "epoch": "2026-03-30T14:19:53.740992Z",
      "apogee_km": 579.0655834223517,
      "perigee_km": 565.124529953765,
      "latitude_deg": -1.734863760805741e-05,
      "longitude_deg": -103.70374235902305,
      "height_km": 577.8072130304101,
      "semi_major_axis_km": 6950.232056688058,
      "eccentricity": 0.00100292,
      "inclination_deg": 42.0068,
      "raan_deg": 299.2568,
      "arg_perigee_deg": 209.9358,
      "mean_anomaly_deg": 150.0894,
      "mean_motion_rev_day": 14.98317335
    },
    {
      "epoch": "2026-03-30T22:19:51.290400Z",
      "apogee_km": 579.1163046628762,
      "perigee_km": 565.0433666097442,
      "latitude_deg": 1.8977747898164187e-05,
      "longitude_deg": 134.1493885715587,
      "height_km": 577.7254480750294,
      "semi_major_axis_km": 6950.21683563631,
      "eccentricity": 0.00101241,
      "inclination_deg": 42.0068,
      "raan_deg": 297.4282,
      "arg_perigee_deg": 211.8978,
      "mean_anomaly_deg": 148.1235,
      "mean_motion_rev_day": 14.98322257
    },
    {
      "epoch": "2026-03-31T14:19:46.186176Z",
      "apogee_km": 579.1487332986526,
      "perigee_km": 564.9578347767037,
      "latitude_deg": -7.143875233710108e-06,
      "longitude_deg": -110.14341017816405,
      "height_km": 577.4701949329357,
      "semi_major_axis_km": 6950.190284037678,
      "eccentricity": 0.0010209,
      "inclination_deg": 42.0065,
      "raan_deg": 293.7712,
      "arg_perigee_deg": 215.935,
      "mean_anomaly_deg": 144.0789,
      "mean_motion_rev_day": 14.98330843
    },
    {
      "epoch": "2026-03-31T22:19:43.505760Z",
      "apogee_km": 579.1741227731773,
      "perigee_km": 564.9061041769255,
      "latitude_deg": 2.094587429651268e-05,
      "longitude_deg": 127.71067196174059,
      "height_km": 577.3347374287024,
      "semi_major_axis_km": 6950.177113475052,
      "eccentricity": 0.00102645,
      "inclination_deg": 42.0064,
      "raan_deg": 291.9426,
      "arg_perigee_deg": 217.9863,
      "mean_anomaly_deg": 142.0239,
      "mean_motion_rev_day": 14.98335102
    },
    {
      "epoch": "2026-04-02T19:07:27.031296Z",
      "apogee_km": 579.2593219605105,
      "perigee_km": 564.6734180220446,
      "latitude_deg": -2.806043239084888e-05,
      "longitude_deg": 163.69958064725947,
      "height_km": 576.4054073335774,
      "semi_major_axis_km": 6950.103369991277,
      "eccentricity": 0.00104933,
      "inclination_deg": 42.0061,
      "raan_deg": 281.7026,
      "arg_perigee_deg": 229.1827,
      "mean_anomaly_deg": 130.8088,
      "mean_motion_rev_day": 14.98358949
    },
    {
      "epoch": "2026-04-03T14:19:18.893280Z",
      "apogee_km": 579.2638532283108,
      "perigee_km": 564.5547752088996,
      "latitude_deg": 1.5725623464773484e-05,
      "longitude_deg": -129.44368564557874,
      "height_km": 575.9161271868027,
      "semi_major_axis_km": 6950.046314218605,
      "eccentricity": 0.0010582,
      "inclination_deg": 42.006,
      "raan_deg": 277.3138,
      "arg_perigee_deg": 233.8848,
      "mean_anomaly_deg": 126.0998,
      "mean_motion_rev_day": 14.983774
    },
    {
      "epoch": "2026-04-04T20:43:04.657440Z",
      "apogee_km": 579.2797397515624,
      "perigee_km": 564.4178900849411,
      "latitude_deg": -1.731532781356369e-05,
      "longitude_deg": 126.41847178051184,
      "height_km": 575.0969290331007,
      "semi_major_axis_km": 6949.985814918251,
      "eccentricity": 0.0010692,
      "inclination_deg": 42.0062,
      "raan_deg": 270.365,
      "arg_perigee_deg": 241.2322,
      "mean_anomaly_deg": 118.7429,
      "mean_motion_rev_day": 14.98396965
    },
    {
      "epoch": "2026-04-05T11:06:57.454272Z",
      "apogee_km": 579.2853974365016,
      "perigee_km": 564.354804596388,
      "latitude_deg": -4.1664975341991714e-05,
      "longitude_deg": -93.4344476812654,
      "height_km": 574.6595666882178,
      "semi_major_axis_km": 6949.9571010164445,
      "eccentricity": 0.00107415,
      "inclination_deg": 42.0062,
      "raan_deg": 267.0734,
      "arg_perigee_deg": 244.8928,
      "mean_anomaly_deg": 115.0782,
      "mean_motion_rev_day": 14.98406251
    },
    {
      "epoch": "2026-04-07T17:30:28.073376Z",
      "apogee_km": 579.2888571031181,
      "perigee_km": 564.1937214588006,
      "latitude_deg": -1.7165625404254526e-05,
      "longitude_deg": 156.02010075337483,
      "height_km": 572.9667160725104,
      "semi_major_axis_km": 6949.8782892809595,
      "eccentricity": 0.001086,
      "inclination_deg": 42.0064,
      "raan_deg": 254.6393,
      "arg_perigee_deg": 258.1205,
      "mean_anomaly_deg": 101.8402,
      "mean_motion_rev_day": 14.98431739
    },
    {
      "epoch": "2026-04-08T11:06:17.894304Z",
      "apogee_km": 579.276199178049,
      "perigee_km": 564.1615136643877,
      "latitude_deg": 2.4795484950804347e-06,
      "longitude_deg": -112.6829571685878,
      "height_km": 572.3932655812182,
      "semi_major_axis_km": 6949.855856421218,
      "eccentricity": 0.00108741,
      "inclination_deg": 42.0064,
      "raan_deg": 250.6165,
      "arg_perigee_deg": 262.3758,
      "mean_anomaly_deg": 97.5832,
      "mean_motion_rev_day": 14.98438994
    },
    {
      "epoch": "2026-04-09T15:54:00.701568Z",
      "apogee_km": 579.2666866293212,
      "perigee_km": 564.1007878165537,
      "latitude_deg": -5.1112973262973795e-05,
      "longitude_deg": 167.6230386245666,
      "height_km": 571.4520726740416,
      "semi_major_axis_km": 6949.820737222937,
      "eccentricity": 0.0010911,
      "inclination_deg": 42.0063,
      "raan_deg": 244.0335,
      "arg_perigee_deg": 269.2705,
      "mean_anomaly_deg": 90.6869,
      "mean_motion_rev_day": 14.98450352
    },
    {
      "epoch": "2026-04-10T11:05:48.806880Z",
      "apogee_km": 579.2588013347886,
      "perigee_km": 564.0595970471577,
      "latitude_deg": -3.3278863466441836e-05,
      "longitude_deg": -125.50446285386619,
      "height_km": 570.8390487800328,
      "semi_major_axis_km": 6949.796199190972,
      "eccentricity": 0.0010935,
      "inclination_deg": 42.006,
      "raan_deg": 239.6448,
      "arg_perigee_deg": 273.7119,
      "mean_anomaly_deg": 86.2455,
      "mean_motion_rev_day": 14.98458288
    },
    {
      "epoch": "2026-04-11T09:29:34.565280Z",
      "apogee_km": 579.2216675205509,
      "perigee_km": 564.061420604532,
      "latitude_deg": 2.9828096136323115e-05,
      "longitude_deg": -107.48552790636411,
      "height_km": 570.1220973705836,
      "semi_major_axis_km": 6949.778544062541,
      "eccentricity": 0.0010907,
      "inclination_deg": 42.0057,
      "raan_deg": 234.5241,
      "arg_perigee_deg": 279.0432,
      "mean_anomaly_deg": 80.9159,
      "mean_motion_rev_day": 14.98463998
    },
    {
      "epoch": "2026-04-12T19:05:12.577344Z",
      "apogee_km": 579.1617103205135,
      "perigee_km": 564.0664340067106,
      "latitude_deg": -4.337486118157164e-05,
      "longitude_deg": 99.54555417684585,
      "height_km": 569.0801678711434,
      "semi_major_axis_km": 6949.751072163612,
      "eccentricity": 0.00108603,
      "inclination_deg": 42.0055,
      "raan_deg": 226.8433,
      "arg_perigee_deg": 286.9959,
      "mean_anomaly_deg": 72.9675,
      "mean_motion_rev_day": 14.98472883
    },
    {
      "epoch": "2026-04-14T19:04:40.204128Z",
      "apogee_km": 579.0460549757818,
      "perigee_km": 564.1222238010596,
      "latitude_deg": 2.8985598872469397e-06,
      "longitude_deg": 86.73717472006814,
      "height_km": 567.7012704684382,
      "semi_major_axis_km": 6949.72113938842,
      "eccentricity": 0.0010737,
      "inclination_deg": 42.0057,
      "raan_deg": 215.8709,
      "arg_perigee_deg": 298.4583,
      "mean_anomaly_deg": 61.516,
      "mean_motion_rev_day": 14.98482564
    }
  ]
}